OBJECT_NAME,OBJECT_ID,EPOCH,MEAN_MOTION,ECCENTRICITY,INCLINATION,RA_OF_ASC_NODE,ARG_OF_PERICENTER,MEAN_ANOMALY,EPHEMERIS_TYPE,CLASSIFICATION_TYPE,NORAD_CAT_ID,ELEMENT_SET_NO,REV_AT_EPOCH,BSTAR,MEAN_MOTION_DOT,MEAN_MOTION_DDOT
PLEIADES NEO 3,2021-034A,2026-07-11T20:02:20.748768,14.81678131,.0001364,97.8941,267.2469,94.7977,265.3392,0,U,48268,999,28130,.10942E-3,.809E-5,0
PLEIADES NEO 4,2021-073E,2026-07-11T20:50:57.616224,14.81673249,.0001339,97.8939,267.2763,91.7532,268.3834,0,U,49070,999,26502,.16123E-4,.75E-6,0
LANDSAT 9,2021-088A,2026-07-10T19:39:17.009568,14.57104464,.00015127,98.2341,261.7009,185.5660,174.5522,0,U,49260,999,25444,.43074943E-4,.149E-5,0
CSG-2,2022-008A,2026-07-11T19:03:16.377120,14.82148365,.0001528,97.8894,16.0355,85.5438,274.5949,0,U,51444,999,24023,.46322E-4,.316E-5,0
GAOFEN-12 03,2022-069A,2026-07-11T20:45:00.703008,14.80074567,.0002509,97.8254,80.1099,76.6433,283.5058,0,U,52912,999,21826,.13293E-3,.957E-5,0
SWOT,2022-173A,2026-07-11T20:30:13.513248,14.00172172,.0000286,77.6107,2.0082,77.4832,282.6352,0,U,54754,999,18260,.50415E-4,.72E-6,0
GAOFEN-12 04,2023-123A,2026-07-11T21:12:24.876000,14.79771712,.000367,97.9104,110.5333,57.2226,302.9338,0,U,57654,999,15628,.12122E-3,.86E-5,0
PARS 1,2024-039Q,2026-07-11T21:50:54.766176,15.46242343,.0010193,97.4830,174.6196,37.5176,322.6782,0,U,59065,999,13246,.14999E-3,.7295E-4,0
RESURS-P 4,2024-061A,2026-07-11T21:13:19.110144,15.32267854,.0003206,97.2758,140.3561,94.2967,265.8641,0,U,59371,999,12754,.60977E-4,.1824E-4,0
LEGION 1,2024-081A,2026-07-11T20:01:57.100224,15.16830282,.0007683,97.5015,270.4300,283.6761,76.3616,0,U,59625,999,12127,.11762E-3,.2246E-4,0
LEGION 2,2024-081B,2026-07-11T19:10:38.351136,15.16809052,.0010052,97.5014,270.4916,246.7666,113.2509,0,U,59626,999,12127,.10331E-3,.1964E-4,0
ALOS-4 (DAICHI-4),2024-123A,2026-07-11T20:16:06.286944,14.79475904,.0001602,97.9220,289.6666,97.7279,262.4115,0,U,60182,999,10952,.10678E-3,.746E-5,0
LEGION 3,2024-146A,2026-07-11T15:29:39.702624,15.15641977,.0008526,45.0012,259.4148,315.1930,44.8259,0,U,60452,999,10573,.12017E-3,.2061E-4,0
LEGION 4,2024-146B,2026-07-11T20:14:06.834624,15.15665292,.0008943,45.0029,350.2228,92.4321,267.7582,0,U,60453,999,10461,.16484E-3,.2928E-4,0
SENTINEL-2C,2024-157A,2026-07-11T18:54:37.787904,14.30815045,.0000951,98.5685,267.2210,100.0573,260.0717,0,U,60989,999,9650,.274E-4,.28E-6,0
IONOSFERA-M 1,2024-199A,2026-07-11T19:23:16.372032,14.22758651,.0002196,98.7141,65.7165,77.2080,282.9343,0,U,61735,999,13120,.333E-4,.31E-6,0
IONOSFERA-M 2,2024-199B,2026-07-11T20:12:34.396128,14.22762052,.0000383,98.7139,65.6608,112.5520,247.5699,0,U,61736,999,13433,.30656E-4,.25E-6,0
PRSC-EO1,2025-012A,2026-07-11T07:44:52.484352,15.17752178,.00066307,97.4221,264.3100,161.2543,198.8936,0,U,62725,999,8185,.20455326E-3,.4065E-4,0
BIOMASS,2025-090A,2026-07-11T20:30:33.222816,14.67537912,.0001488,98.0746,19.8106,92.0380,268.0995,0,U,63772,999,6430,.10836E-3,.566E-5,0
GOSAT-GW (IBUKI GW),2025-141A,2026-07-11T20:55:26.829984,14.67554559,.0001435,98.0564,129.7879,85.7054,274.4315,0,U,64694,999,5546,.49355E-4,.232E-5,0
IONOSFERA-M 3,2025-155A,2026-07-11T21:09:51.434784,14.21490472,.0002191,98.6038,154.1670,117.6113,242.5287,0,U,64876,999,4991,.20913E-4,.3E-7,0
IONOSFERA-M 4,2025-155B,2026-07-11T20:18:36.523584,14.21492884,.0001761,98.6037,154.0494,102.9219,257.2155,0,U,64877,999,4990,.25906E-4,.14E-6,0
MICROCARB,2025-156A,2026-07-11T19:32:12.567840,14.72882876,.0017351,98.0075,269.5636,181.4107,178.7055,0,U,64899,999,5159,.50799E-4,.276E-5,0
CO3D 3,2025-156B,2026-07-11T19:19:41.454624,15.20220028,.0001831,97.4337,271.1443,100.4410,259.7031,0,U,64900,999,5327,.11334E-3,.2388E-4,0
CO3D 4,2025-156C,2026-07-11T19:19:55.874784,15.20190344,.0001447,97.4334,271.1449,161.8931,198.2356,0,U,64901,999,5327,.37431E-4,.743E-5,0
CO3D 2,2025-156D,2026-07-11T20:06:42.050880,15.20204662,.0001305,97.4337,271.0752,88.7012,271.4373,0,U,64902,999,5327,.12151E-3,.2564E-4,0
CO3D 1,2025-156E,2026-07-11T20:06:55.003968,15.20208265,.0001307,97.4337,271.0754,101.3567,258.7815,0,U,64903,999,5327,.12346E-3,.2606E-4,0
PRSC-S1,2025-164A,2026-07-11T20:36:35.705376,15.06618502,.0006194,41.1292,148.8411,176.1496,183.9366,0,U,65055,999,5215,.15588E-3,.2173E-4,0
SENTINEL-6B,2025-264A,2026-07-11T20:03:41.989824,12.80930071,.0007873,66.0413,83.9841,268.7579,91.2534,0,U,66514,999,3032,-.41261E-4,-.71E-6,0
CAS500-3,2025-274F,2026-07-11T18:05:58.458048,14.88378865,.0006462,97.7438,120.2465,47.2907,312.8853,0,U,66655,999,3380,.7868E-4,.675E-5,0
CSG-3,2026-001A,2026-07-11T12:04:05.088288,14.82150491,.00014925,97.8892,15.7530,93.1085,267.0299,0,U,67304,999,2806,.28101767E-4,.171E-5,0
PRSC-E03,2026-092A,2026-07-11T18:36:29.712960,15.06799129,.0004622,38.0020,304.6768,229.7942,130.2416,0,U,68835,999,1166,.10418E-3,.1471E-4,0
CAS500-2,2026-100AK,2026-07-11T16:41:29.872032,15.20876867,.0008005,97.3877,90.0874,306.8039,53.2461,0,U,69013,999,1053,.15743E-3,.3412E-4,0
